STARLINK-31437          
1 60057U 24112V   24174.16667824 -.00891317  00000+0 -53787-2 0  9998
2 60057  53.1624 112.7188 0001162  64.0723  48.6146 15.79290713  3120
2024-114A               
1 60079U 24114A   24173.87115847  .00000663  00000+0  10000-3 0  9990
2 60079  98.0288 189.6331 0000982 300.7462  59.3653 14.77591155   164
2024-114B               
1 60080U 24114B   24174.52871171  .00808213  25069-5  11989-2 0  9995
2 60080  98.0455 190.5108 0312515 222.2780 135.3998 15.53165847   262
2024-114C               
1 60081U 24114C   24173.73608516  .00000653  00000+0  10000-3 0  9997
2 60081  98.0297 189.4970 0002228  72.5507 287.5137 14.76996645   134
2024-114D               
1 60082U 24114D   24173.73597946  .00000654  00000+0  10000-3 0  9993
2 60082  98.0299 189.4962 0001919  58.6757 301.1077 14.77082928   133
2024-114E               
1 60083U 24114E   24173.73599215  .00000656  00000+0  10000-3 0  9997
2 60083  98.0285 189.4976 0001207  93.6722 266.4711 14.77166759   138
2024-114F               
1 60084U 24114F   24173.80351142  .00000661  00000+0  10000-3 0  9997
2 60084  98.0289 189.5661 0001010 350.4924   9.5748 14.77472879   145
2024-114G               
1 60085U 24114G   24174.19092542  .00011775  00000+0  91252-3 0  9993
2 60085  98.0268 190.0014 0093040  30.9044 329.7597 14.98152418   202
ASTRA 1P                
1 60086U 24115A   24173.70654580 -.00000134  00000+0  00000+0 0  9992
2 60086  27.8839  64.3432 7980838 178.2605  47.2398  1.43329844    15
2024-115B               
1 60087U 24115B   24173.70913376 -.00000134  00000+0  00000+0 0  9994
2 60087  27.8866  64.3379 7985804 178.2982  46.7975  1.42706334    19
NOAA 1                  
1 04793U 70106A   24173.73166986 -.00000023  00000+0  12722-3 0  9992
2 04793 101.4452 225.7230 0031148 328.8184 149.3895 12.54028828449752
NOAA 2 (ITOS-D)         
1 06235U 72082A   24173.95460623 -.00000019  00000+0  17549-3 0  9996
2 06235 102.0144 172.9816 0004479 109.4766 320.8978 12.53181410364108
NOAA 3                  
1 06920U 73086A   24173.96217382 -.00000052  00000+0 -40553-4 0  9995
2 06920 102.2763 169.9937 0006770  20.5134  45.6011 12.40367964291987
NOAA 4                  
1 07529U 74089A   24173.92765303 -.00000038  00000+0  51317-4 0  9995
2 07529 101.9867 168.2327 0009241 136.9659 277.1179 12.53180917268671
NOAA 5                  
1 09057U 76077A   24173.88308769 -.00000051  00000+0 -41798-4 0  9994
2 09057 102.2070 147.3016 0009214 226.1137 189.7403 12.37801257164734
TIROS N                 
1 11060U 78096A   24174.07428285  .00000238  00000+0  13461-3 0  9992
2 11060  98.5315 214.2855 0010609 175.3200 184.8078 14.18832166576141
NOAA 6                  
1 11416U 79057A   24174.06501563  .00000399  00000+0  15711-3 0  9993
2 11416  98.6281 195.2821 0008976 242.7499 117.2772 14.34543938347166
NOAA 7                  
1 12553U 81059A   24174.13318748  .00000102  00000+0  72254-4 0  9998
2 12553  98.8931 233.4613 0011570 175.2259 184.9028 14.17535203222237
NOAA 8                  
1 13923U 83022A   24174.53412462  .00000205  00000+0  98232-4 0  9992
2 13923  98.7294 174.5066 0014208 213.9792 146.0480 14.29260373147794
NOAA 9                  
1 15427U 84123A   24174.55025507  .00000181  00000+0  11394-3 0  9994
2 15427  99.1174 172.1181 0013789 239.3886 229.7760 14.16606485 41043
NOAA 10                 
1 16969U 86073A   24174.53866191  .00000204  00000+0  98533-4 0  9999
2 16969  98.6405 160.4206 0011377 321.3921 148.3814 14.28633487966178
NOAA 11                 
1 19531U 88089A   24174.51805389  .00000079  00000+0  61752-4 0  9999
2 19531  98.5183 136.8481 0010334 214.8065 145.2435 14.15543373845190
NOAA 12                 
1 21263U 91032A   24174.18675867  .00000170  00000+0  88586-4 0  9991
2 21263  98.5572 165.1894 0013524 352.5206   7.5770 14.26323862721850
NOAA 13                 
1 22739U 93050A   24173.88882340  .00000176  00000+0  11614-3 0  9997
2 22739  98.6063 131.2143 0010382  45.0411 315.1602 14.13225332590919
NOAA 14                 
1 23455U 94089A   24174.18408950  .00000086  00000+0  66364-4 0  9994
2 23455  98.4317 169.9127 0009776  15.5595 344.5878 14.14401661520944
NOAA 15                 
1 25338U 98030A   24174.56701141  .00000303  00000+0  14336-3 0  9999
2 25338  98.5678 201.5814 0009311 313.8306  46.2104 14.26608675358205
NOAA 16                 
1 26536U 00055A   24174.10862984  .00000144  00000+0  98236-4 0  9998
2 26536  98.5306 213.4815 0009737 216.4529 143.5982 14.13590524224772
NOAA 17                 
1 27453U 02032A   24174.19221757  .00000192  00000+0  10019-3 0  9995
2 27453  98.7632 124.7802 0010670 297.5259  62.4836 14.25597179143675
NOAA 18                 
1 28654U 05018A   24174.44722498  .00000293  00000+0  17971-3 0  9998
2 28654  98.8745 251.3684 0014976  52.0260 308.2263 14.13236055984004
NOAA 19                 
1 33591U 09005A   24174.47014305  .00000265  00000+0  16628-3 0  9995
2 33591  99.0467 230.3252 0012739 277.6148  82.3576 14.13031404792372
SUOMI NPP               
1 37849U 11061A   24174.46963281  .00000112  00000+0  74031-4 0  9999
2 37849  98.7224 112.3709 0000425 118.9870 241.1349 14.19519873655618
NOAA 20 (JPSS-1)        
1 43013U 17073A   24174.48718352  .00000104  00000+0  69989-4 0  9994
2 43013  98.7065 112.3204 0001156 134.5785 225.5486 14.19598774341653
NOAA 21 (JPSS-2)        
1 54234U 22150A   24174.09970014  .00000105  00000+0  70747-4 0  9990
2 54234  98.7520 111.9359 0001821 103.1866 256.9514 14.19528595 83672
ISS (ZARYA)             
1 25544U 98067A   24174.58341435  .00068610  00000+0  12124-2 0  9993
2 25544  51.6407 288.5582 0010475 356.5766 181.0779 15.49646421459382
CSS (TIANHE)            
1 48274U 21035A   24174.08838110  .00032842  00000+0  36299-3 0  9993
2 48274  41.4688  53.2326 0004786 260.9564  99.0734 15.62330083179860
ISS (NAUKA)             
1 49044U 21066A   24173.77773372  .00016941  00000+0  30784-3 0  9991
2 49044  51.6401 292.5488 0010620 352.0363   8.0456 15.49608435459229
FREGAT DEB              
1 49271U 11037PF  24173.89236687  .00031262  00000+0  61593-1 0  9999
2 49271  51.6783 334.4994 1004158 134.7730 233.9385 12.17295413135776
CSS (WENTIAN)           
1 53239U 22085A   24173.89660972  .00034193  00000+0  37786-3 0  9996
2 53239  41.4688  54.4022 0004768 259.9244 100.1057 15.62319259102473
CSS (MENGTIAN)          
1 54216U 22143A   24173.89660972  .00034193  00000+0  37786-3 0  9997
2 54216  41.4688  54.4022 0004768 259.9244 100.1057 15.62319259 93625
ISS DEB                 
1 58229U 98067WC  24174.49189960  .01296946  12726-2  86272-3 0  9995
2 58229  51.6183 258.8018 0013000 335.9038  24.1369 16.16403772 36550
BEAK                    
1 58612U 98067WD  24174.47946870  .00917542  48952-3  94434-3 0  9991
2 58612  51.6233 264.0603 0014184 334.3047  25.7261 16.09897218 29439
TIANZHOU-7              
1 58811U 24013A   24173.89660972  .00034193  00000+0  37786-3 0  9990
2 58811  41.4688  54.4022 0004768 259.9244 100.1057 15.62319259179715
CYGNUS NG-20            
1 58898U 24021A   24173.77773372  .00016941  00000+0  30784-3 0  9992
2 58898  51.6401 292.5488 0010620 352.0363   8.0456 15.49608435459226
PROGRESS-MS 26          
1 58961U 24029A   24173.77773372  .00016941  00000+0  30784-3 0  9991
2 58961  51.6401 292.5488 0010620 352.0363   8.0456 15.49608435459227
CREW DRAGON 8           
1 59097U 24042A   24173.77773372  .00016941  00000+0  30784-3 0  9997
2 59097  51.6401 292.5488 0010620 352.0363   8.0456 15.49608435459228
SOYUZ-MS 25             
1 59294U 24055A   24173.77773372  .00016941  00000+0  30784-3 0  9990
2 59294  51.6401 292.5488 0010620 352.0363   8.0456 15.49608435459227
MICROORBITER-1          
1 59483U 98067WF  24173.68039013  .00119852  00000+0  10999-2 0  9991
2 59483  51.6334 288.8880 0010407 322.5805  37.4465 15.66782675 11185
CURTIS                  
1 59507U 98067WG  24174.51915769  .00076209  00000+0  81757-3 0  9991
2 59507  51.6336 285.4902 0007986 326.7193  33.3298 15.63081058 11314
KASHIWA                 
1 59508U 98067WH  24174.53563033  .00144285  00000+0  11945-2 0  9998
2 59508  51.6313 284.0924 0011855 327.7248  32.3022 15.69193631 11334
1998-067WJ              
1 59559U 98067WJ  24174.56881795  .00071040  00000+0  80450-3 0  9991
2 59559  51.6361 285.8346 0007666 306.5438  53.4849 15.61721964 10182
1998-067WK              
1 59560U 98067WK  24173.70959455  .00179186  00000+0  13855-2 0  9991
2 59560  51.6334 288.3332 0013925 312.5301  47.4520 15.70683738 10004
1998-067WL              
1 59561U 98067WL  24174.48731474  .00031206  00000+0  43806-3 0  9997
2 59561  51.6370 287.5403 0004730 314.0857  45.9745 15.56432104 10120
BURSTCUBE               
1 59562U 98067WM  24173.73948590  .00077245  00000+0  87048-3 0  9993
2 59562  51.6366 290.0477 0008054 327.7258  32.3242 15.61810251 10036
SNOOPI                  
1 59563U 98067WN  24174.54011261  .00066374  00000+0  79745-3 0  9996
2 59563  51.6376 286.3963 0006907 330.8623  29.1984 15.60217951 10148
SHENZHOU-18 (SZ-18)     
1 59591U 24078A   24173.89660972  .00034193  00000+0  37786-3 0  9997
2 59591  41.4688  54.4022 0004768 259.9244 100.1057 15.62319259  8813
1998-067WP              
1 59596U 98067WP  24174.51581018  .00096224  00000+0  97005-3 0  9997
2 59596  51.6349 285.4768 0009336 311.7951  48.2246 15.64547183 10193
1998-067WQ              
1 59597U 98067WQ  24173.81043868  .00097546  00000+0  98254-3 0  9991
2 59597  51.6378 289.0256 0009228 308.3689  51.6477 15.64564052 10051
SZ-17 MODULE            
1 59624U 23164C   24174.13152675  .00030345  00000+0  29289-3 0  9997
2 59624  41.4778  52.7075 0008056 286.4121  73.5834 15.65768063  8317
